# From MPEC 2024-C04
C/2016 J2 (Denneau),h,04/13.6562/2016,130.3394,186.4113,318.3839,1.000517,1.497702,2000,17.0,4.0
# From MPC102099
P/2016 P1 (PANSTARRS),e,24.3829,319.3420,270.7285,3.202523,0.1719752,0.28816735,191.4789,06/28.0/2024,2000,g 15.0,4.0
# From MPEC 2024-H50
C/2016 Q2 (PANSTARRS),h,05/12.2334/2021,109.3516,322.3371,84.5482,1.003137,7.080658,2000,6.0,4.0
# From MPEC 2022-K19
P/2016 R4 (Gibbs),e,10.8699,168.2803,174.1293,5.335304,0.0799770,0.47530692,231.6556,06/28.0/2024,2000,g 12.5,4.0
# From MPC105543
P/2016 S1 (PANSTARRS),e,94.7391,227.6758,273.1946,8.270022,0.0414423,0.71142514,110.1502,06/28.0/2024,2000,g 12.0,4.0
# From MPC106345
P/2016 WM48 (Lemmon),e,117.6351,59.9540,36.1789,8.173358,0.0421797,0.78377051,113.0196,06/28.0/2024,2000,g 15.0,4.0
# From MPEC 2021-P47
C/2016 X1 (Lemmon),e,26.4686,256.3037,224.5451,1926,0.0000117,0.99607696,0.0000,04/29.3218/2019,2000,g  6.0,4.0
# From MPEC 2022-OB6
C/2017 B3 (LINEAR),e,54.1878,2.2038,284.8173,5685,0.0000023,0.99930805,0.0000,01/30.8998/2019,2000,g  6.0,4.0
# From MPC103847
P/2017 B4 (PANSTARRS),e,20.0584,121.4578,11.0197,4.410520,0.1064068,0.36495152,359.9130,01/05.0/2017,2000,g 14.5,4.0
# From MPEC 2022-OB6
P/2017 D1 (Fuls),e,20.7723,82.1997,8.0070,4.824704,0.0930032,0.43767950,271.9394,06/28.0/2024,2000,g 14.0,4.0
# From MPEC 2022-OB6
P/2017 D4 (PANSTARRS),e,10.5590,264.9085,212.1231,7.543166,0.0475744,0.63013967,135.5770,06/28.0/2024,2000,g 13.0,4.0
# From MPEC 2024-C04
P/2017 G1 (PANSTARRS),e,5.1553,247.1396,225.2326,7.193830,0.0510815,0.65039223,152.8681,06/28.0/2024,2000,g 13.5,4.0
# From MPC108595
P/2017 G2 (PANSTARRS),e,47.9680,79.8962,105.2618,8.040878,0.0432264,0.64818316,111.3427,06/28.0/2024,2000,g 13.0,4.0
# From MPEC 2024-LE0
C/2017 K2 (PANSTARRS),h,12/19.5084/2022,87.5971,88.2259,236.2095,1.000270,1.798244,2000,1.5,4.0
# From MPEC 2021-N06
P/2017 K3 (Gasparovic),e,4.2733,354.2858,253.3092,5.585023,0.0746735,0.57897294,193.6333,06/28.0/2024,2000,g 14.5,4.0
# From MPEC 2021-P47
C/2017 K5 (PANSTARRS),h,03/26.5529/2020,82.2729,102.4410,172.0139,1.003726,7.683457,2000,5.0,4.0
# From MPEC 2022-OB6
C/2017 M4 (ATLAS),h,01/17.8636/2019,105.6232,66.0209,167.5003,1.000643,3.242760,2000,6.0,4.0
# From MPC114599
P/2017 P1 (PANSTARRS),e,7.6878,221.4617,122.8124,7.920783,0.0442132,0.30978224,97.1739,06/28.0/2024,2000,g 10.0,4.0
# From MPEC 2022-OB6
P/2017 S8 (PANSTARRS),e,29.8432,191.5292,254.8791,2.778784,0.2127756,0.39104269,138.6432,06/28.0/2024,2000,g 16.0,4.0
# From MPEC 2024-A43
C/2017 T2 (PANSTARRS),e,57.2930,64.4512,92.8174,1496,0.0000170,0.99892541,0.0000,05/05.3536/2020,2000,g  5.0,4.0
# From MPC115882
P/2017 TW13 (Lemmon),e,44.8707,322.1879,119.9471,7.135597,0.0517081,0.71073107,113.5940,06/28.0/2024,2000,g 15.0,2.0
# From MPEC 2022-K19
P/2017 U3 (PANSTARRS),e,15.9186,165.0785,296.2703,4.921253,0.0902798,0.10050556,171.7142,06/28.0/2024,2000,g 11.0,4.0
# From MPEC 2023-A50
C/2017 U7 (PANSTARRS),h,09/16.1198/2019,142.6340,276.3060,326.4615,1.002681,6.425899,2000,8.3,2.0
# From MPC114601
P/2017 W3 (Gibbs),e,18.1774,210.1281,327.7679,7.822484,0.0450492,0.50658546,104.2432,06/28.0/2024,2000,g 10.5,4.0
# From MPEC 2024-DC6
C/2017 Y2 (PANSTARRS),h,11/05.1026/2020,128.4492,66.0352,147.8863,1.001475,4.627436,2000,15.0,4.0
# From MPC111770
P/2017 Y3 (Leonard),e,27.6009,153.9436,67.4445,9.803140,0.0321112,0.86935487,74.9239,06/28.0/2024,2000,g 16.5,4.0
# From MPEC 2021-P47
C/2018 A3 (ATLAS),e,139.5700,194.3198,86.4232,344.6123,0.0001541,0.99046232,0.0000,01/09.3121/2019,2000,g  8.5,4.0
# From MPC109147
P/2018 A5 (PANSTARRS),e,23.6204,87.7832,359.5146,5.625424,0.0738705,0.52429895,182.1504,06/28.0/2024,2000,g 15.0,4.0
# From MPEC 2024-JU4
C/2018 A6 (Gibbs),e,77.1135,340.4184,264.3069,15.00914,0.0169500,0.79887942,30.7568,06/28.0/2024,2000,g  9.0,4.0
# From MPC114601
P/2018 C1 (Lemmon-Read),e,5.1054,270.2633,235.7308,5.650646,0.0733765,0.53235499,169.9855,06/28.0/2024,2000,g 13.5,4.0
# From MPEC 2022-M88
C/2018 DO4 (Lemmon),e,160.4475,251.3888,176.3522,25.45071,0.0076763,0.90501053,13.6413,06/28.0/2024,2000,g 11.0,4.0
# From MPEC 2021-R75
C/2018 F1 (Grauer),e,46.1233,177.2945,71.5068,223.4308,0.0002951,0.98659269,0.0000,12/10.5300/2018,2000,g 11.5,4.0
# From MPEC 2023-A50
C/2018 F4 (PANSTARRS),e,78.0969,26.5202,263.2062,2240,0.0000093,0.99846106,0.0000,12/01.6767/2019,2000,g 11.0,6.0
# From MPEC 2021-Y10
C/2018 F4-A,e,78.0971,26.5203,263.2029,2165,0.0000098,0.99840811,0.0000,12/01.6648/2019,2000,g 11.0,6.0
# From MPEC 2023-D41
C/2018 F4-B,e,78.0980,26.5198,263.1887,2293,0.0000090,0.99849688,0.0000,12/01.6016/2019,2000,g 11.0,6.0
# From MPC114602
P/2018 H2 (PANSTARRS),e,7.4211,67.9738,119.4343,4.398933,0.1068275,0.54048520,253.8530,06/28.0/2024,2000,g 16.6,2.0
# From MPEC 2021-R75
C/2018 KJ3 (Lemmon),e,136.6324,91.6877,217.5891,797.3108,0.0000438,0.99545925,0.0000,09/09.5692/2019,2000,g 12.2,2.0
# From MPC114602
P/2018 L1 (PANSTARRS),e,10.5786,268.5892,17.9903,3.656302,0.1409746,0.48126994,290.0896,06/28.0/2024,2000,g 15.0,4.0
# From MPEC 2021-P47
C/2018 L2 (ATLAS),e,67.1999,242.9829,56.3503,244.2174,0.0002582,0.99295750,0.0000,11/30.7219/2018,2000,g 10.0,4.0
# From MPC114603
P/2018 L4 (PANSTARRS),e,26.5971,145.2166,140.5543,4.947606,0.0895595,0.65829395,193.6108,06/28.0/2024,2000,g 17.5,4.0
# From MPC119996
P/2018 L5 (Leonard),e,2.2090,219.0576,93.9226,3.629116,0.1425617,0.36380582,320.0943,06/28.0/2024,2000,g 14.5,4.0
# From MPEC 2022-YN2
C/2018 N2 (ASASSN),h,11/11.9019/2019,77.5395,24.5007,25.2848,1.001727,3.132501,2000,6.0,4.0
# From MPC114603
P/2018 P4 (PANSTARRS),e,23.0941,353.1477,8.4906,6.692384,0.0569289,0.44977285,117.1807,06/28.0/2024,2000,g 12.0,4.0
# From MPEC 2021-P47
C/2018 P5 (PANSTARRS),e,7.2458,216.2516,132.0333,12.85247,0.0213907,0.64227181,41.6622,06/28.0/2024,2000,g 11.0,4.0
# From MPC118841
C/2018 R3 (Lemmon),e,69.7059,324.4768,112.7349,1674,0.0000144,0.99923383,0.0000,06/08.0912/2019,2000,g  9.5,4.0
# From MPC114603
C/2018 R5 (Lemmon),e,103.7194,171.2180,178.2579,22.97202,0.0089517,0.84162637,17.8622,06/28.0/2024,2000,g 11.5,4.0
# From MPEC 2022-QC6
C/2018 S2 (TESS),e,64.1162,85.1134,290.8869,14.37001,0.0180933,0.61844269,37.2820,06/28.0/2024,2000,g  7.5,4.0
# From MPEC 2024-JU4
C/2018 U1 (Lemmon),h,11/02.6905/2021,108.3254,75.5132,180.4203,1.000897,4.989873,2000,5.0,4.0
# From MPC114604
C/2018 V1 (Machholz-Fujikawa-Iwamoto),h,12/03.3353/2018,144.1644,129.4038,89.4297,1.000424,0.391846,2000,12.0,4.0
# From MPC115884
C/2018 V2 (ATLAS),e,159.1657,357.1452,319.1890,25.18316,0.0077990,0.90104979,15.9213,06/28.0/2024,2000,g 15.0,4.0
# From MPEC 2023-CD7
P/2018 VN2 (Leonard),e,18.2603,226.4410,138.9242,4.061584,0.1204096,0.47841507,266.2482,06/28.0/2024,2000,g 15.0,4.0
# From MPEC 2022-VC5
A/2018 V3,e,164.9333,308.7767,3.6079,128.4071,0.0006774,0.98960316,0.0000,09/10.1074/2019,2000,g 15.7,2.0
# From MPEC 2022-M21
C/2018 V4 (Africano),e,69.0398,78.2514,0.0210,210.3544,0.0003231,0.98479688,0.0000,03/02.1907/2019,2000,g 12.5,4.0
# From MPEC 2021-P47
P/2018 V5 (Trujillo-Sheppard),e,10.5840,171.3166,260.7561,8.972774,0.0366703,0.47595753,76.7307,06/28.0/2024,2000,g 12.5,4.0
# From MPEC 2021-P47
C/2018 W1 (Catalina),e,83.4236,233.6581,251.1916,21.71883,0.0097375,0.93762123,18.2389,06/28.0/2024,2000,g 15.5,2.0
# From MPEC 2021-P47
C/2018 W2 (Africano),h,09/05.4087/2019,116.5883,181.8919,158.1864,1.000845,1.465241,2000,9.5,4.0
# From MPEC 2023-M14
A/2018 W3,e,104.8388,251.6897,313.9243,717.0897,0.0000513,0.99402169,0.0000,04/13.1097/2021,2000,g 10.7,2.0
# From MPC119996
C/2018 X2 (Fitzsimmons),e,23.0896,340.7158,161.9513,139.3587,0.0005991,0.98483163,0.0000,07/09.0084/2019,2000,g 12.0,4.0
# From MPC114604
C/2018 X3 (PANSTARRS),e,43.4228,78.8004,359.8043,12.39585,0.0225834,0.78290918,45.2748,06/28.0/2024,2000,g 14.5,4.0
# From MPEC 2024-A43
C/2018 Y1 (Iwamoto),e,160.4504,147.3995,357.8636,126.8257,0.0006901,0.98984469,0.0000,02/04.3810/2019,2000,g 11.5,4.0
# From MPC114605
P/2018 Y2 (Africano),e,11.6909,297.1439,162.3076,7.454385,0.0484269,0.47988683,96.9778,06/28.0/2024,2000,g 11.5,4.0
# From MPC114605
P/2019 A1 (PANSTARRS),e,13.7631,312.2285,150.7407,5.113703,0.0852316,0.56998339,177.7117,06/28.0/2024,2000,g 16.0,4.0
# From MPEC 2021-P47
P/2019 A2 (ATLAS),e,14.8673,139.3922,323.8914,5.711192,0.0722128,0.38298550,147.6394,06/28.0/2024,2000,g 10.5,4.0
# From MPEC 2022-M21
P/2019 A3 (PANSTARRS),e,15.3734,31.3569,325.6673,3.145195,0.1766985,0.26643560,20.7216,06/28.0/2024,2000,g 16.0,4.0
# From MPEC 2022-L66
P/2019 A4 (PANSTARRS),e,13.3043,119.3604,343.1176,2.614492,0.2331434,0.08733703,112.3460,06/28.0/2024,2000,g 15.0,4.0
# From MPEC 2021-P47
C/2019 A5 (PANSTARRS),e,67.5480,146.5552,355.7774,21.47972,0.0099006,0.70618852,18.3016,06/28.0/2024,2000,g  9.5,4.0
# From MPC114605
P/2019 A6 (Lemmon-PANSTARRS),e,33.2853,280.1840,156.2151,5.356791,0.0794963,0.64038584,169.1012,06/28.0/2024,2000,g 16.0,4.0
# From MPC115884
P/2019 A8 (PANSTARRS),e,2.2112,114.3609,63.7072,4.341945,0.1089376,0.22660675,243.8308,06/28.0/2024,2000,g 16.0,4.0
# From MPC118842
C/2019 A9 (PANSTARRS),e,84.3584,278.4512,237.8985,39.19670,0.0040163,0.96354272,7.2239,06/28.0/2024,2000,g 15.0,4.0
# From MPEC 2022-L66
C/2019 B1 (Africano),e,123.4532,290.2740,174.7835,138.3290,0.0006058,0.98844139,0.0000,03/18.5129/2019,2000,g 16.0,4.0
# From MPC115885
P/2019 B2 (Groeller),e,16.9685,175.7112,0.7589,3.923147,0.1268388,0.35809011,236.7204,06/28.0/2024,2000,g 14.5,4.0
# From MPEC 2024-JU4
C/2019 B3 (PANSTARRS),e,66.5643,358.4168,263.9769,5065,0.0000027,0.99865208,0.0000,01/19.8763/2021,2000,g  5.5,4.0
# From MPEC 2021-P47
C/2019 C1 (ATLAS),e,36.0491,212.3888,319.0166,654.5142,0.0000589,0.98996143,0.0000,05/04.1057/2020,2000,g 10.0,4.0
# From MPEC 2022-O08
C/2019 D1 (Flewelling),e,33.9945,231.6454,70.7356,139.3988,0.0005988,0.98859066,0.0000,05/09.9427/2019,2000,g 13.0,4.0
# From MPEC 2024-LE0
C/2019 E3 (ATLAS),e,84.3027,347.2193,280.7085,5793,0.0000022,0.99821967,0.0000,11/15.4433/2023,2000,g  2.5,4.0
# From MPEC 2024-GJ3
